start=new Date('2023-04-10T00:00:00.000Z').valueOf();
sats=[{"MEAN_MOTION":"15.06445092","TLE_LINE1":"1 48638U 21044A   23099.72465971  .00029346  00000-0  19784-2 0  9999","TLE_LINE2":"2 48638  53.0534 217.4274 0001208  71.0238 289.0882 15.06445092103265","COUNTRY_CODE":"US","CLASSIFICATION_TYPE":"U","CENTER_NAME":"EARTH","EPHEMERIS_TYPE":"0","RCS_SIZE":"LARGE","MEAN_ANOMALY":"289.0882","OBJECT_ID":"2021-044A","APOAPSIS":"547.912","REF_FRAME":"TEME","OBJECT_TYPE":"PAYLOAD","PERIAPSIS":"546.239","ARG_OF_PERICENTER":"71.0238","SITE":"AFETR","BSTAR":"0.00197840000000","REV_AT_EPOCH":"10326","GP_ID":"229808261","NORAD_CAT_ID":"48638","ECCENTRICITY":"0.00012080","INCLINATION":"53.0534","MEAN_MOTION_DDOT":"0.0000000000000","PERIOD":"95.589","MEAN_ELEMENT_THEORY":"SGP4","TIME_SYSTEM":"UTC","ELEMENT_SET_NO":"999","FILE":"3884641","MEAN_MOTION_DOT":"0.00029346","RA_OF_ASC_NODE":"217.4274","EPOCH":"2023-04-09T17:23:30.598944","SEMIMAJOR_AXIS":"6925.210","LAUNCH_DATE":"2021-05-26","OBJECT_NAME":"STARLINK-2758","DECAY_DATE":null},{"BSTAR":"0.00187550000000","ECCENTRICITY":"0.00014190","MEAN_MOTION_DDOT":"0.0000000000000","INCLINATION":"53.0517","REV_AT_EPOCH":"10328","GP_ID":"229809005","NORAD_CAT_ID":"48639","ELEMENT_SET_NO":"999","TIME_SYSTEM":"UTC","MEAN_MOTION_DOT":"0.00027796","FILE":"3884641","PERIOD":"95.589","MEAN_ELEMENT_THEORY":"SGP4","LAUNCH_DATE":"2021-05-26","OBJECT_NAME":"STARLINK-2739","DECAY_DATE":null,"RA_OF_ASC_NODE":"216.9025","SEMIMAJOR_AXIS":"6925.221","EPOCH":"2023-04-09T20:13:20.884512","TLE_LINE2":"2 48639  53.0517 216.9025 0001419  67.6155 292.4984 15.06441738103284","CLASSIFICATION_TYPE":"U","COUNTRY_CODE":"US","MEAN_MOTION":"15.06441738","TLE_LINE1":"1 48639U 21044B   23099.84260283  .00027796  00000-0  18755-2 0  9996","EPHEMERIS_TYPE":"0","CENTER_NAME":"EARTH","REF_FRAME":"TEME","APOAPSIS":"548.068","OBJECT_ID":"2021-044B","MEAN_ANOMALY":"292.4984","RCS_SIZE":"LARGE","SITE":"AFETR","PERIAPSIS":"546.103","OBJECT_TYPE":"PAYLOAD","ARG_OF_PERICENTER":"67.6155"},{"REF_FRAME":"TEME","APOAPSIS":"548.010","OBJECT_ID":"2021-044C","MEAN_ANOMALY":"271.3843","RCS_SIZE":"LARGE","SITE":"AFETR","ARG_OF_PERICENTER":"88.7293","PERIAPSIS":"546.225","OBJECT_TYPE":"PAYLOAD","CLASSIFICATION_TYPE":"U","COUNTRY_CODE":"US","TLE_LINE2":"2 48640  53.0521 217.8066 0001289  88.7293 271.3843 15.06431396103254","TLE_LINE1":"1 48640U 21044C   23099.70351542  .00022080  00000-0  14953-2 0  9999","MEAN_MOTION":"15.06431396","EPHEMERIS_TYPE":"0","CENTER_NAME":"EARTH","FILE":"3884641","MEAN_MOTION_DOT":"0.00022080","ELEMENT_SET_NO":"999","TIME_SYSTEM":"UTC","MEAN_ELEMENT_THEORY":"SGP4","PERIOD":"95.590","DECAY_DATE":null,"LAUNCH_DATE":"2021-05-26","OBJECT_NAME":"STARLINK-2736","SEMIMAJOR_AXIS":"6925.252","EPOCH":"2023-04-09T16:53:03.732288","RA_OF_ASC_NODE":"217.8066","BSTAR":"0.00149530000000","INCLINATION":"53.0521","MEAN_MOTION_DDOT":"0.0000000000000","ECCENTRICITY":"0.00012890","NORAD_CAT_ID":"48640","GP_ID":"229807267","REV_AT_EPOCH":"10325"},{"LAUNCH_DATE":"2021-05-26","OBJECT_NAME":"STARLINK-2754","DECAY_DATE":null,"RA_OF_ASC_NODE":"222.4711","SEMIMAJOR_AXIS":"6925.182","EPOCH":"2023-04-09T17:10:55.167456","ELEMENT_SET_NO":"999","TIME_SYSTEM":"UTC","FILE":"3884641","MEAN_MOTION_DOT":"0.00036971","PERIOD":"95.589","MEAN_ELEMENT_THEORY":"SGP4","ECCENTRICITY":"0.00011450","INCLINATION":"53.0527","MEAN_MOTION_DDOT":"0.0000000000000","GP_ID":"229807512","REV_AT_EPOCH":"10319","NORAD_CAT_ID":"48641","BSTAR":"0.00248430000000","SITE":"AFETR","OBJECT_TYPE":"PAYLOAD","PERIAPSIS":"546.254","ARG_OF_PERICENTER":"77.6666","REF_FRAME":"TEME","OBJECT_ID":"2021-044D","APOAPSIS":"547.840","MEAN_ANOMALY":"282.4451","RCS_SIZE":"LARGE","EPHEMERIS_TYPE":"0","CENTER_NAME":"EARTH","TLE_LINE2":"2 48641  53.0527 222.4711 0001145  77.6666 282.4451 15.06454218103191","CLASSIFICATION_TYPE":"U","COUNTRY_CODE":"US","MEAN_MOTION":"15.06454218","TLE_LINE1":"1 48641U 21044D   23099.71591629  .00036971  00000-0  24843-2 0  9996"},{"SITE":"AFETR","PERIAPSIS":"546.100","OBJECT_TYPE":"PAYLOAD","ARG_OF_PERICENTER":"85.4511","APOAPSIS":"548.244","OBJECT_ID":"2021-044E","REF_FRAME":"TEME","RCS_SIZE":"LARGE","MEAN_ANOMALY":"274.6655","EPHEMERIS_TYPE":"0","CENTER_NAME":"EARTH","TLE_LINE2":"2 48642  53.0537 223.0059 0001548  85.4511 274.6655 15.06413573103174","CLASSIFICATION_TYPE":"U","COUNTRY_CODE":"US","MEAN_MOTION":"15.06413573","TLE_LINE1":"1 48642U 21044E   23099.59703199  .00025628  00000-0  17325-2 0  9994","LAUNCH_DATE":"2021-05-26","OBJECT_NAME":"STARLINK-2646","DECAY_DATE":null,"RA_OF_ASC_NODE":"223.0059","EPOCH":"2023-04-09T14:19:43.563936","SEMIMAJOR_AXIS":"6925.307","TIME_SYSTEM":"UTC","ELEMENT_SET_NO":"999","MEAN_MOTION_DOT":"0.00025628","FILE":"3884641","PERIOD":"95.591","MEAN_ELEMENT_THEORY":"SGP4","ECCENTRICITY":"0.00015480","MEAN_MOTION_DDOT":"0.0000000000000","INCLINATION":"53.0537","GP_ID":"229808762","REV_AT_EPOCH":"10317","NORAD_CAT_ID":"48642","BSTAR":"0.00173250000000"},{"BSTAR":"0.00210630000000","MEAN_MOTION_DDOT":"0.0000000000000","INCLINATION":"53.0546","ECCENTRICITY":"0.00011310","NORAD_CAT_ID":"48643","REV_AT_EPOCH":"10410","GP_ID":"229780251","FILE":"3884377","MEAN_MOTION_DOT":"0.00031265","TIME_SYSTEM":"UTC","ELEMENT_SET_NO":"999","MEAN_ELEMENT_THEORY":"SGP4","PERIOD":"95.590","DECAY_DATE":null,"LAUNCH_DATE":"2021-05-26","OBJECT_NAME":"STARLINK-2704","EPOCH":"2023-04-09T18:39:48.702528","SEMIMAJOR_AXIS":"6925.228","RA_OF_ASC_NODE":"222.1818","CLASSIFICATION_TYPE":"U","COUNTRY_CODE":"US","TLE_LINE2":"2 48643  53.0546 222.1818 0001131  90.9695 269.1424 15.06439256104103","TLE_LINE1":"1 48643U 21044F   23099.77764702  .00031265  00000-0  21063-2 0  9990","MEAN_MOTION":"15.06439256","EPHEMERIS_TYPE":"0","CENTER_NAME":"EARTH","APOAPSIS":"547.876","OBJECT_ID":"2021-044F","REF_FRAME":"TEME","RCS_SIZE":"LARGE","MEAN_ANOMALY":"269.1424","SITE":"AFETR","ARG_OF_PERICENTER":"90.9695","PERIAPSIS":"546.310","OBJECT_TYPE":"PAYLOAD"},{"BSTAR":"0.00198480000000","GP_ID":"229780113","REV_AT_EPOCH":"10402","NORAD_CAT_ID":"48644","ECCENTRICITY":"0.00012950","MEAN_MOTION_DDOT":"0.0000000000000","INCLINATION":"53.0545","PERIOD":"95.590","MEAN_ELEMENT_THEORY":"SGP4","TIME_SYSTEM":"UTC","ELEMENT_SET_NO":"999","MEAN_MOTION_DOT":"0.00029433","FILE":"3884379","RA_OF_ASC_NODE":"222.7965","EPOCH":"2023-04-09T15:24:46.441152","SEMIMAJOR_AXIS":"6925.245","OBJECT_NAME":"STARLINK-2695","LAUNCH_DATE":"2021-05-26","DECAY_DATE":null,"MEAN_MOTION":"15.06433942","TLE_LINE1":"1 48644U 21044G   23099.64220418  .00029433  00000-0  19848-2 0  9990","TLE_LINE2":"2 48644  53.0545 222.7965 0001295  84.8080 275.3057 15.06433942104021","CLASSIFICATION_TYPE":"U","COUNTRY_CODE":"US","CENTER_NAME":"EARTH","EPHEMERIS_TYPE":"0","RCS_SIZE":"LARGE","MEAN_ANOMALY":"275.3057","OBJECT_ID":"2021-044G","APOAPSIS":"548.006","REF_FRAME":"TEME","PERIAPSIS":"546.213","OBJECT_TYPE":"PAYLOAD","ARG_OF_PERICENTER":"84.8080","SITE":"AFETR"},{"OBJECT_TYPE":"PAYLOAD","PERIAPSIS":"546.276","ARG_OF_PERICENTER":"82.8023","SITE":"AFETR","MEAN_ANOMALY":"277.3099","RCS_SIZE":"LARGE","REF_FRAME":"TEME","OBJECT_ID":"2021-044H","APOAPSIS":"547.903","CENTER_NAME":"EARTH","EPHEMERIS_TYPE":"0","MEAN_MOTION":"15.06440460","TLE_LINE1":"1 48645U 21044H   23099.77120995  .00025626  00000-0  17311-2 0  9997","TLE_LINE2":"2 48645  53.0525 222.2233 0001175  82.8023 277.3099 15.06440460103205","COUNTRY_CODE":"US","CLASSIFICATION_TYPE":"U","RA_OF_ASC_NODE":"222.2233","SEMIMAJOR_AXIS":"6925.225","EPOCH":"2023-04-09T18:30:32.539680","LAUNCH_DATE":"2021-05-26","OBJECT_NAME":"STARLINK-2733","DECAY_DATE":null,"PERIOD":"95.590","MEAN_ELEMENT_THEORY":"SGP4","ELEMENT_SET_NO":"999","TIME_SYSTEM":"UTC","FILE":"3884641","MEAN_MOTION_DOT":"0.00025626","REV_AT_EPOCH":"10320","GP_ID":"229808013","NORAD_CAT_ID":"48645","ECCENTRICITY":"0.00011750","INCLINATION":"53.0525","MEAN_MOTION_DDOT":"0.0000000000000","BSTAR":"0.00173110000000"},{"NORAD_CAT_ID":"48646","REV_AT_EPOCH":"10317","GP_ID":"229808262","MEAN_MOTION_DDOT":"0.0000000000000","INCLINATION":"53.0532","ECCENTRICITY":"0.00013680","BSTAR":"0.00158060000000","EPOCH":"2023-04-09T13:38:38.060448","SEMIMAJOR_AXIS":"6925.272","RA_OF_ASC_NODE":"223.1341","DECAY_DATE":null,"OBJECT_NAME":"STARLINK-2732","LAUNCH_DATE":"2021-05-26","MEAN_ELEMENT_THEORY":"SGP4","PERIOD":"95.591","MEAN_MOTION_DOT":"0.00023356","FILE":"3884641","TIME_SYSTEM":"UTC","ELEMENT_SET_NO":"999","CENTER_NAME":"EARTH","EPHEMERIS_TYPE":"0","TLE_LINE1":"1 48646U 21044J   23099.56849607  .00023356  00000-0  15806-2 0  9998","MEAN_MOTION":"15.06424895","CLASSIFICATION_TYPE":"U","COUNTRY_CODE":"US","TLE_LINE2":"2 48646  53.0532 223.1341 0001368  87.3115 272.8030 15.06424895103175","ARG_OF_PERICENTER":"87.3115","OBJECT_TYPE":"PAYLOAD","PERIAPSIS":"546.190","SITE":"AFETR","RCS_SIZE":"MEDIUM","MEAN_ANOMALY":"272.8030","APOAPSIS":"548.085","OBJECT_ID":"2021-044J","REF_FRAME":"TEME"},{"SITE":"AFETR","OBJECT_TYPE":"PAYLOAD","PERIAPSIS":"546.193","ARG_OF_PERICENTER":"77.4953","REF_FRAME":"TEME","APOAPSIS":"547.938","OBJECT_ID":"2021-044K","MEAN_ANOMALY":"282.6177","RCS_SIZE":"LARGE","EPHEMERIS_TYPE":"0","CENTER_NAME":"EARTH","TLE_LINE2":"2 48647  53.0525 222.5541 0001260  77.4953 282.6177 15.06448186103196","COUNTRY_CODE":"US","CLASSIFICATION_TYPE":"U","MEAN_MOTION":"15.06448186","TLE_LINE1":"1 48647U 21044K   23099.69748745  .00036486  00000-0  24525-2 0  9990","OBJECT_NAME":"STARLINK-2691","LAUNCH_DATE":"2021-05-26","DECAY_DATE":null,"RA_OF_ASC_NODE":"222.5541","SEMIMAJOR_AXIS":"6925.201","EPOCH":"2023-04-09T16:44:22.915680","ELEMENT_SET_NO":"999","TIME_SYSTEM":"UTC","MEAN_MOTION_DOT":"0.00036486","FILE":"3884641","PERIOD":"95.589","MEAN_ELEMENT_THEORY":"SGP4","ECCENTRICITY":"0.00012600","MEAN_MOTION_DDOT":"0.0000000000000","INCLINATION":"53.0525","GP_ID":"229809006","REV_AT_EPOCH":"10319","NORAD_CAT_ID":"48647","BSTAR":"0.00245250000000"}];
